SWARM A                 
1 39452U 13067B   26162.67058639  .00009964  00000+0  17196-3 0  9995
2 39452  87.3335  58.2907 0002987  93.5801 266.5802 15.50842300705398
SWARM C                 
1 39453U 13067C   26162.67046779  .00009949  00000+0  17169-3 0  9991
2 39453  87.3334  56.8719 0002981  93.8506 266.3096 15.50844737705357
BRITE-CA1 (TORONTO)     
1 40020U 14033L   26162.33043878  .00000569  00000+0  93437-4 0  9999
2 40020  97.9731 291.3666 0077352 296.0994  63.2268 14.72668490641353
OCO 2                   
1 40059U 14035A   26162.66190876  .00000340  00000+0  85607-4 0  9997
2 40059  98.2018 104.0391 0001491  86.2197 273.9172 14.57106782635246
BRITE-PL2 (HEWELIUSZ)   
1 40119U 14049B   26162.61554125  .00001285  00000+0  12409-3 0  9993
2 40119  97.9092 274.5729 0015129 124.9359 235.3285 14.94576660640613
MMS 1                   
1 40482U 15011A   26162.75002315 -.00000077  00000+0  00000+0 0  9999
2 40482  72.0973 348.8626 8320536 167.3558 103.7346  0.28372110  1398
MMS 2                   
1 40483U 15011B   26162.75002315 -.00000076  00000+0  00000+0 0  9999
2 40483  72.0997 348.8639 8321372 167.3600 103.7308  0.28373023  1398
MMS 3                   
1 40484U 15011C   26162.75002315 -.00000076  00000+0  00000+0 0  9990
2 40484  72.1005 348.8694 8320504 167.3559 103.7191  0.28372087  1399
MMS 4                   
1 40485U 15011D   26162.75002315 -.00000076  00000+0  00000+0 0  9991
2 40485  72.0966 348.8651 8320111 167.3637 103.7073  0.28372069  1398
ASTROSAT                
1 40930U 15052A   26162.64229951  .00001460  00000+0  95981-4 0  9990
2 40930   5.9951 195.2696 0008438 313.6900  46.2529 14.82498132579001
DAMPE                   
1 41173U 15078A   26162.74283966  .00001082  00000+0  38905-4 0  9998
2 41173  97.4561 168.1829 0013797  93.9452 266.3367 15.30770684583712
PISAT                   
1 41784U 16059B   26162.55851389  .00000816  00000+0  14650-3 0  9999
2 41784  97.8179 163.2532 0027957 221.2985 138.6107 14.68974237518919
HXMT (HUIYAN)           
1 42758U 17034A   26162.54311590  .00003875  00000+0  19424-3 0  9991
2 42758  43.0133 214.4686 0030215 110.0181 250.3925 15.18441281496804
FLYING LAPTOP           
1 42831U 17042G   26162.71953253  .00002965  00000+0  23520-3 0  9990
2 42831  97.4661 318.4641 0019311 139.4783 220.7883 15.01110312485631
ZHANGHENG 1-01 (CSES-1) 
1 43194U 18015C   26162.74359216  .00006700  00000+0  30657-3 0  9996
2 43194  97.6861 328.2939 0017075 286.9074  73.0288 15.20741978463816
SALSAT                  
1 46495U 20068K   26162.58556220  .00006923  00000+0  24314-3 0  9990
2 46495  97.8849 165.3093 0008526 331.4069  28.6701 15.29719030314503
IXPE                    
1 49954U 21121A   26162.75002315  .00010554  00000+0  57150-3 0  9993
2 49954   0.2307 358.4157 0007240 359.0869 192.6282 15.10201600  5653
SMILE                   
1 69123U 26109A   26144.65318427 -.00001976  00000+0 -42379-3 0  9994
2 69123  70.0007 229.2745 0009123 259.5159 100.4951 14.57062785   802
